start=new Date('2022-07-01T00:00:00.000Z').valueOf();
sats=[{"INCLINATION":"53.0548","EPOCH":"2022-06-30T21:43:39.438048","ELEMENT_SET_NO":"999","DECAY_DATE":null,"TLE_LINE1":"1 45413U 20019BF  22181.90531757  .00000356  00000-0  42832-4 0  9997","PERIOD":"95.592","APOAPSIS":"548.255","OBJECT_ID":"2020-019BF","GP_ID":"207175301","TIME_SYSTEM":"UTC","EPHEMERIS_TYPE":"0","OBJECT_NAME":"STARLINK-1298","PERIAPSIS":"546.191","COUNTRY_CODE":"US","MEAN_ELEMENT_THEORY":"SGP4","BSTAR":"0.00004283200000","MEAN_MOTION_DOT":"0.00000356","REF_FRAME":"TEME","FILE":"3505946","MEAN_ANOMALY":"283.4689","CENTER_NAME":"EARTH","ECCENTRICITY":"0.00014900","LAUNCH_DATE":"2020-03-18","CLASSIFICATION_TYPE":"U","RA_OF_ASC_NODE":"67.0501","TLE_LINE2":"2 45413  53.0548  67.0501 0001490  76.6466 283.4689 15.06396885126811","MEAN_MOTION":"15.06396885","REV_AT_EPOCH":"12681","ARG_OF_PERICENTER":"76.6466","MEAN_MOTION_DDOT":"0.0000000000000","SEMIMAJOR_AXIS":"6925.358","OBJECT_TYPE":"PAYLOAD","NORAD_CAT_ID":"45413","RCS_SIZE":"LARGE","SITE":"AFETR"},{"REV_AT_EPOCH":"12670","ARG_OF_PERICENTER":"58.3778","CLASSIFICATION_TYPE":"U","LAUNCH_DATE":"2020-03-18","RA_OF_ASC_NODE":"67.1169","TLE_LINE2":"2 45414  53.0564  67.1169 0001524  58.3778 301.7360 15.06393584126703","MEAN_MOTION":"15.06393584","ECCENTRICITY":"0.00015240","REF_FRAME":"TEME","FILE":"3505946","MEAN_ANOMALY":"301.7360","CENTER_NAME":"EARTH","NORAD_CAT_ID":"45414","SITE":"AFETR","RCS_SIZE":"LARGE","SEMIMAJOR_AXIS":"6925.368","OBJECT_TYPE":"PAYLOAD","MEAN_MOTION_DDOT":"0.0000000000000","DECAY_DATE":null,"TLE_LINE1":"1 45414U 20019BG  22181.89057181  .00002197  00000-0  16636-3 0  9997","PERIOD":"95.593","APOAPSIS":"548.289","OBJECT_ID":"2020-019BG","ELEMENT_SET_NO":"999","INCLINATION":"53.0564","EPOCH":"2022-06-30T21:22:25.404384","MEAN_MOTION_DOT":"0.00002197","COUNTRY_CODE":"US","MEAN_ELEMENT_THEORY":"SGP4","BSTAR":"0.00016636000000","GP_ID":"207174051","EPHEMERIS_TYPE":"0","TIME_SYSTEM":"UTC","OBJECT_NAME":"STARLINK-1309","PERIAPSIS":"546.178"},{"MEAN_MOTION_DOT":"0.00001667","GP_ID":"207174301","OBJECT_NAME":"STARLINK-1316","EPHEMERIS_TYPE":"0","TIME_SYSTEM":"UTC","PERIAPSIS":"546.166","COUNTRY_CODE":"US","MEAN_ELEMENT_THEORY":"SGP4","BSTAR":"0.00013080000000","DECAY_DATE":null,"TLE_LINE1":"1 45415U 20019BH  22181.85003284  .00001667  00000-0  13080-3 0  9990","PERIOD":"95.593","OBJECT_ID":"2020-019BH","APOAPSIS":"548.336","INCLINATION":"53.0565","EPOCH":"2022-06-30T20:24:02.837376","ELEMENT_SET_NO":"999","SEMIMAJOR_AXIS":"6925.386","OBJECT_TYPE":"PAYLOAD","NORAD_CAT_ID":"45415","SITE":"AFETR","RCS_SIZE":"LARGE","MEAN_MOTION_DDOT":"0.0000000000000","LAUNCH_DATE":"2020-03-18","CLASSIFICATION_TYPE":"U","RA_OF_ASC_NODE":"67.3085","MEAN_MOTION":"15.06387785","TLE_LINE2":"2 45415  53.0565  67.3085 0001567  85.4700 274.6468 15.06387785126733","REV_AT_EPOCH":"12673","ARG_OF_PERICENTER":"85.4700","REF_FRAME":"TEME","FILE":"3505946","MEAN_ANOMALY":"274.6468","CENTER_NAME":"EARTH","ECCENTRICITY":"0.00015670"},{"ECCENTRICITY":"0.00015160","MEAN_ANOMALY":"282.1263","CENTER_NAME":"EARTH","FILE":"3505946","REF_FRAME":"TEME","ARG_OF_PERICENTER":"77.9896","REV_AT_EPOCH":"12672","TLE_LINE2":"2 45416  53.0544  67.1649 0001516  77.9896 282.1263 15.06388910126728","MEAN_MOTION":"15.06388910","RA_OF_ASC_NODE":"67.1649","CLASSIFICATION_TYPE":"U","LAUNCH_DATE":"2020-03-18","MEAN_MOTION_DDOT":"0.0000000000000","RCS_SIZE":"LARGE","SITE":"AFETR","NORAD_CAT_ID":"45416","OBJECT_TYPE":"PAYLOAD","SEMIMAJOR_AXIS":"6925.383","ELEMENT_SET_NO":"999","EPOCH":"2022-06-30T21:11:49.955712","INCLINATION":"53.0544","OBJECT_ID":"2020-019BJ","APOAPSIS":"548.297","PERIOD":"95.593","TLE_LINE1":"1 45416U 20019BJ  22181.88321708  .00001687  00000-0  13218-3 0  9993","DECAY_DATE":null,"BSTAR":"0.00013218000000","MEAN_ELEMENT_THEORY":"SGP4","COUNTRY_CODE":"US","PERIAPSIS":"546.198","OBJECT_NAME":"STARLINK-1318","EPHEMERIS_TYPE":"0","TIME_SYSTEM":"UTC","GP_ID":"207175053","MEAN_MOTION_DOT":"0.00001687"},{"CENTER_NAME":"EARTH","MEAN_ANOMALY":"283.2732","REF_FRAME":"TEME","FILE":"3505946","ECCENTRICITY":"0.00016920","RA_OF_ASC_NODE":"97.4263","MEAN_MOTION":"15.06388825","TLE_LINE2":"2 45417  53.0530  97.4263 0001692  76.8446 283.2732 15.06388825126566","LAUNCH_DATE":"2020-03-18","CLASSIFICATION_TYPE":"U","REV_AT_EPOCH":"12656","ARG_OF_PERICENTER":"76.8446","MEAN_MOTION_DDOT":"0.0000000000000","OBJECT_TYPE":"PAYLOAD","SEMIMAJOR_AXIS":"6925.383","RCS_SIZE":"LARGE","SITE":"AFETR","NORAD_CAT_ID":"45417","EPOCH":"2022-06-30T19:42:54.854208","INCLINATION":"53.0530","ELEMENT_SET_NO":"999","PERIOD":"95.593","OBJECT_ID":"2020-019BK","APOAPSIS":"548.420","DECAY_DATE":null,"TLE_LINE1":"1 45417U 20019BK  22181.82146822  .00001313  00000-0  10704-3 0  9993","PERIAPSIS":"546.076","GP_ID":"207174802","EPHEMERIS_TYPE":"0","OBJECT_NAME":"STARLINK-1286","TIME_SYSTEM":"UTC","MEAN_ELEMENT_THEORY":"SGP4","BSTAR":"0.00010704000000","COUNTRY_CODE":"US","MEAN_MOTION_DOT":"0.00001313"},{"MEAN_MOTION_DOT":"0.00005548","EPHEMERIS_TYPE":"0","TIME_SYSTEM":"UTC","OBJECT_NAME":"STARLINK-1299","GP_ID":"207173552","PERIAPSIS":"545.599","COUNTRY_CODE":"US","BSTAR":"0.00039167000000","MEAN_ELEMENT_THEORY":"SGP4","TLE_LINE1":"1 45418U 20019BL  22181.83867647  .00005548  00000-0  39167-3 0  9998","DECAY_DATE":null,"OBJECT_ID":"2020-019BL","APOAPSIS":"549.189","PERIOD":"95.596","INCLINATION":"52.9990","EPOCH":"2022-06-30T20:07:41.647008","ELEMENT_SET_NO":"999","SEMIMAJOR_AXIS":"6925.529","OBJECT_TYPE":"PAYLOAD","NORAD_CAT_ID":"45418","SITE":"AFETR","RCS_SIZE":"LARGE","MEAN_MOTION_DDOT":"0.0000000000000","CLASSIFICATION_TYPE":"U","LAUNCH_DATE":"2020-03-18","TLE_LINE2":"2 45418  52.9990 118.8718 0002592  62.5379 297.5872 15.06341232125962","MEAN_MOTION":"15.06341232","RA_OF_ASC_NODE":"118.8718","ARG_OF_PERICENTER":"62.5379","REV_AT_EPOCH":"12596","FILE":"3505946","REF_FRAME":"TEME","CENTER_NAME":"EARTH","MEAN_ANOMALY":"297.5872","ECCENTRICITY":"0.00025920"},{"RA_OF_ASC_NODE":"97.7574","TLE_LINE2":"2 45419  53.0552  97.7574 0001365  76.7815 283.3326 15.06390947126306","MEAN_MOTION":"15.06390947","LAUNCH_DATE":"2020-03-18","CLASSIFICATION_TYPE":"U","REV_AT_EPOCH":"12630","ARG_OF_PERICENTER":"76.7815","MEAN_ANOMALY":"283.3326","CENTER_NAME":"EARTH","REF_FRAME":"TEME","FILE":"3505946","ECCENTRICITY":"0.00013650","OBJECT_TYPE":"PAYLOAD","SEMIMAJOR_AXIS":"6925.376","SITE":"AFETR","RCS_SIZE":"LARGE","NORAD_CAT_ID":"45419","MEAN_MOTION_DDOT":"0.0000000000000","PERIOD":"95.593","APOAPSIS":"548.187","OBJECT_ID":"2020-019BM","DECAY_DATE":null,"TLE_LINE1":"1 45419U 20019BM  22181.75143168  .00001969  00000-0  15111-3 0  9991","EPOCH":"2022-06-30T18:02:03.697152","INCLINATION":"53.0552","ELEMENT_SET_NO":"999","MEAN_MOTION_DOT":"0.00001969","PERIAPSIS":"546.296","GP_ID":"207173802","OBJECT_NAME":"STARLINK-1308","EPHEMERIS_TYPE":"0","TIME_SYSTEM":"UTC","MEAN_ELEMENT_THEORY":"SGP4","BSTAR":"0.00015111000000","COUNTRY_CODE":"US"},{"COUNTRY_CODE":"US","MEAN_ELEMENT_THEORY":"SGP4","BSTAR":"0.00006338900000","GP_ID":"207174063","OBJECT_NAME":"STARLINK-1329","EPHEMERIS_TYPE":"0","TIME_SYSTEM":"UTC","PERIAPSIS":"546.085","MEAN_MOTION_DOT":"0.00000663","ELEMENT_SET_NO":"999","INCLINATION":"53.0557","EPOCH":"2022-06-30T20:28:01.030080","DECAY_DATE":null,"TLE_LINE1":"1 45531U 20025A   22181.85278970  .00000663  00000-0  63389-4 0  9995","PERIOD":"95.593","OBJECT_ID":"2020-025A","APOAPSIS":"548.387","MEAN_MOTION_DDOT":"0.0000000000000","NORAD_CAT_ID":"45531","SITE":"AFETR","RCS_SIZE":"LARGE","SEMIMAJOR_AXIS":"6925.371","OBJECT_TYPE":"PAYLOAD","ECCENTRICITY":"0.00016620","REF_FRAME":"TEME","FILE":"3505946","CENTER_NAME":"EARTH","MEAN_ANOMALY":"281.8665","REV_AT_EPOCH":"12194","ARG_OF_PERICENTER":"78.2510","LAUNCH_DATE":"2020-04-22","CLASSIFICATION_TYPE":"U","RA_OF_ASC_NODE":"37.2997","MEAN_MOTION":"15.06392825","TLE_LINE2":"2 45531  53.0557  37.2997 0001662  78.2510 281.8665 15.06392825121944"},{"RCS_SIZE":"LARGE","SITE":"AFETR","NORAD_CAT_ID":"45532","OBJECT_TYPE":"PAYLOAD","SEMIMAJOR_AXIS":"6925.369","MEAN_MOTION_DDOT":"0.0000000000000","REV_AT_EPOCH":"12194","ARG_OF_PERICENTER":"76.6670","RA_OF_ASC_NODE":"37.2489","TLE_LINE2":"2 45532  53.0563  37.2489 0001501  76.6670 283.4487 15.06393470121946","MEAN_MOTION":"15.06393470","LAUNCH_DATE":"2020-04-22","CLASSIFICATION_TYPE":"U","ECCENTRICITY":"0.00015010","CENTER_NAME":"EARTH","MEAN_ANOMALY":"283.4487","REF_FRAME":"TEME","FILE":"3505946","MEAN_MOTION_DOT":"0.00001692","MEAN_ELEMENT_THEORY":"SGP4","BSTAR":"0.00013245000000","COUNTRY_CODE":"US","PERIAPSIS":"546.194","GP_ID":"207174313","EPHEMERIS_TYPE":"0","TIME_SYSTEM":"UTC","OBJECT_NAME":"STARLINK-1338","PERIOD":"95.593","APOAPSIS":"548.273","OBJECT_ID":"2020-025B","DECAY_DATE":null,"TLE_LINE1":"1 45532U 20025B   22181.86384809  .00001692  00000-0  13245-3 0  9994","ELEMENT_SET_NO":"999","EPOCH":"2022-06-30T20:43:56.474976","INCLINATION":"53.0563"},{"ARG_OF_PERICENTER":"151.4506","REV_AT_EPOCH":"12207","TLE_LINE2":"2 45533  53.0412 345.2468 0004406 151.4506 208.6748 15.60091722122075","MEAN_MOTION":"15.60091722","RA_OF_ASC_NODE":"345.2468","CLASSIFICATION_TYPE":"U","LAUNCH_DATE":"2020-04-22","ECCENTRICITY":"0.00044060","MEAN_ANOMALY":"208.6748","CENTER_NAME":"EARTH","FILE":"3505836","REF_FRAME":"TEME","RCS_SIZE":"LARGE","SITE":"AFETR","NORAD_CAT_ID":"45533","OBJECT_TYPE":"PAYLOAD","SEMIMAJOR_AXIS":"6765.529","MEAN_MOTION_DDOT":"0.0000000000000","OBJECT_ID":"2020-025C","APOAPSIS":"390.375","PERIOD":"92.302","TLE_LINE1":"1 45533U 20025C   22181.83224073  .00016786  00000-0  20897-3 0  9999","DECAY_DATE":null,"ELEMENT_SET_NO":"999","EPOCH":"2022-06-30T19:58:25.599072","INCLINATION":"53.0412","MEAN_MOTION_DOT":"0.00016786","BSTAR":"0.00020897000000","MEAN_ELEMENT_THEORY":"SGP4","COUNTRY_CODE":"US","PERIAPSIS":"384.413","EPHEMERIS_TYPE":"0","TIME_SYSTEM":"UTC","OBJECT_NAME":"STARLINK-1339","GP_ID":"207152736"}];
